[{"OBJECT_NAME":"STARLINK-30386","OBJECT_ID":"2023-138J","EPOCH":"2025-07-28T04:26:26.799360","MEAN_MOTION":15.02538915,"ECCENTRICITY":0.0001351,"INCLINATION":43.0048,"RA_OF_ASC_NODE":16.0615,"ARG_OF_PERICENTER":266.3139,"MEAN_ANOMALY":93.7549,"EPHEMERIS_TYPE":0,"CLASSIFICATION_TYPE":"U","NORAD_CAT_ID":57816,"ELEMENT_SET_NO":999,"REV_AT_EPOCH":10466,"BSTAR":6.3847e-5,"MEAN_MOTION_DOT":6.59e-6,"MEAN_MOTION_DDOT":0},{"OBJECT_NAME":"STARLINK-30391","OBJECT_ID":"2023-138K","EPOCH":"2025-07-28T04:21:39.596256","MEAN_MOTION":15.02533836,"ECCENTRICITY":0.0001142,"INCLINATION":43.0032,"RA_OF_ASC_NODE":16.0366,"ARG_OF_PERICENTER":264.0631,"MEAN_ANOMALY":96.0081,"EPHEMERIS_TYPE":0,"CLASSIFICATION_TYPE":"U","NORAD_CAT_ID":57817,"ELEMENT_SET_NO":999,"REV_AT_EPOCH":10493,"BSTAR":-1.108e-5,"MEAN_MOTION_DOT":-3.53e-6,"MEAN_MOTION_DDOT":0},{"OBJECT_NAME":"STARLINK-30401","OBJECT_ID":"2023-138L","EPOCH":"2025-07-27T18:42:29.371968","MEAN_MOTION":15.02540421,"ECCENTRICITY":0.000121,"INCLINATION":43.0045,"RA_OF_ASC_NODE":18.1787,"ARG_OF_PERICENTER":267.3061,"MEAN_ANOMALY":92.7643,"EPHEMERIS_TYPE":0,"CLASSIFICATION_TYPE":"U","NORAD_CAT_ID":57818,"ELEMENT_SET_NO":999,"REV_AT_EPOCH":10478,"BSTAR":7.2245e-5,"MEAN_MOTION_DOT":7.73e-6,"MEAN_MOTION_DDOT":0},{"OBJECT_NAME":"STARLINK-30390","OBJECT_ID":"2023-138M","EPOCH":"2025-07-28T04:12:04.186944","MEAN_MOTION":15.02532855,"ECCENTRICITY":0.0001395,"INCLINATION":43.0051,"RA_OF_ASC_NODE":15.9864,"ARG_OF_PERICENTER":270.024,"MEAN_ANOMALY":90.0442,"EPHEMERIS_TYPE":0,"CLASSIFICATION_TYPE":"U","NORAD_CAT_ID":57819,"ELEMENT_SET_NO":999,"REV_AT_EPOCH":10487,"BSTAR":1.3707e-5,"MEAN_MOTION_DOT":-1.9e-7,"MEAN_MOTION_DDOT":0},{"OBJECT_NAME":"STARLINK-30409","OBJECT_ID":"2023-138N","EPOCH":"2025-07-27T18:18:30.837888","MEAN_MOTION":15.02537015,"ECCENTRICITY":0.0001238,"INCLINATION":43.0048,"RA_OF_ASC_NODE":18.0352,"ARG_OF_PERICENTER":262.348,"MEAN_ANOMALY":97.7222,"EPHEMERIS_TYPE":0,"CLASSIFICATION_TYPE":"U","NORAD_CAT_ID":57820,"ELEMENT_SET_NO":999,"REV_AT_EPOCH":10482,"BSTAR":4.6974e-5,"MEAN_MOTION_DOT":4.31e-6,"MEAN_MOTION_DDOT":0},{"OBJECT_NAME":"STARLINK-30415","OBJECT_ID":"2023-138P","EPOCH":"2025-07-28T03:59:17.188224","MEAN_MOTION":15.02530267,"ECCENTRICITY":0.0001172,"INCLINATION":43.0044,"RA_OF_ASC_NODE":15.9205,"ARG_OF_PERICENTER":256.2833,"MEAN_ANOMALY":103.7879,"EPHEMERIS_TYPE":0,"CLASSIFICATION_TYPE":"U","NORAD_CAT_ID":57821,"ELEMENT_SET_NO":999,"REV_AT_EPOCH":10493,"BSTAR":8.2205e-5,"MEAN_MOTION_DOT":9.07e-6,"MEAN_MOTION_DDOT":0},{"OBJECT_NAME":"STARLINK-30407","OBJECT_ID":"2023-138R","EPOCH":"2025-07-28T07:54:33.666912","MEAN_MOTION":15.27573219,"ECCENTRICITY":0.0001004,"INCLINATION":43.0025,"RA_OF_ASC_NODE":315.8465,"ARG_OF_PERICENTER":273.7541,"MEAN_ANOMALY":86.3196,"EPHEMERIS_TYPE":0,"CLASSIFICATION_TYPE":"U","NORAD_CAT_ID":57823,"ELEMENT_SET_NO":999,"REV_AT_EPOCH":10565,"BSTAR":-4.7e-5,"MEAN_MOTION_DOT":-1.555e-5,"MEAN_MOTION_DDOT":0},{"OBJECT_NAME":"STARLINK-30408","OBJECT_ID":"2023-138S","EPOCH":"2025-07-27T18:23:18.758112","MEAN_MOTION":15.02535533,"ECCENTRICITY":0.0001274,"INCLINATION":43.0046,"RA_OF_ASC_NODE":18.0776,"ARG_OF_PERICENTER":263.3837,"MEAN_ANOMALY":96.686,"EPHEMERIS_TYPE":0,"CLASSIFICATION_TYPE":"U","NORAD_CAT_ID":57824,"ELEMENT_SET_NO":999,"REV_AT_EPOCH":10487,"BSTAR":2.1206e-5,"MEAN_MOTION_DOT":8.3e-7,"MEAN_MOTION_DDOT":0},{"OBJECT_NAME":"STARLINK-30377","OBJECT_ID":"2023-138T","EPOCH":"2025-07-27T21:10:47.738208","MEAN_MOTION":15.02536803,"ECCENTRICITY":0.0001356,"INCLINATION":43.006,"RA_OF_ASC_NODE":17.2341,"ARG_OF_PERICENTER":262.92,"MEAN_ANOMALY":97.1488,"EPHEMERIS_TYPE":0,"CLASSIFICATION_TYPE":"U","NORAD_CAT_ID":57825,"ELEMENT_SET_NO":999,"REV_AT_EPOCH":10479,"BSTAR":3.6897e-6,"MEAN_MOTION_DOT":-1.54e-6,"MEAN_MOTION_DDOT":0},{"OBJECT_NAME":"STARLINK-30422","OBJECT_ID":"2023-138U","EPOCH":"2025-07-27T21:15:35.152128","MEAN_MOTION":15.02534068,"ECCENTRICITY":0.0001454,"INCLINATION":43.0042,"RA_OF_ASC_NODE":17.2553,"ARG_OF_PERICENTER":256.0038,"MEAN_ANOMALY":104.0643,"EPHEMERIS_TYPE":0,"CLASSIFICATION_TYPE":"U","NORAD_CAT_ID":57826,"ELEMENT_SET_NO":999,"REV_AT_EPOCH":10489,"BSTAR":0.00010382,"MEAN_MOTION_DOT":1.199e-5,"MEAN_MOTION_DDOT":0},{"OBJECT_NAME":"STARLINK-30402","OBJECT_ID":"2023-138V","EPOCH":"2025-07-28T11:43:32.169792","MEAN_MOTION":15.02549328,"ECCENTRICITY":9.66e-5,"INCLINATION":43.0036,"RA_OF_ASC_NODE":14.0378,"ARG_OF_PERICENTER":242.4952,"MEAN_ANOMALY":117.5792,"EPHEMERIS_TYPE":0,"CLASSIFICATION_TYPE":"U","NORAD_CAT_ID":57827,"ELEMENT_SET_NO":999,"REV_AT_EPOCH":10498,"BSTAR":0.00014264,"MEAN_MOTION_DOT":1.724e-5,"MEAN_MOTION_DDOT":0},{"OBJECT_NAME":"STARLINK-30411","OBJECT_ID":"2023-138W","EPOCH":"2025-07-27T19:49:27.099840","MEAN_MOTION":15.02539054,"ECCENTRICITY":0.000138,"INCLINATION":43.0042,"RA_OF_ASC_NODE":17.6437,"ARG_OF_PERICENTER":267.8342,"MEAN_ANOMALY":92.2343,"EPHEMERIS_TYPE":0,"CLASSIFICATION_TYPE":"U","NORAD_CAT_ID":57828,"ELEMENT_SET_NO":999,"REV_AT_EPOCH":10482,"BSTAR":-4.2456e-6,"MEAN_MOTION_DOT":-2.61e-6,"MEAN_MOTION_DDOT":0},{"OBJECT_NAME":"STARLINK-30418","OBJECT_ID":"2023-138X","EPOCH":"2025-07-27T17:54:32.837760","MEAN_MOTION":15.02533249,"ECCENTRICITY":0.000131,"INCLINATION":43.0058,"RA_OF_ASC_NODE":17.9282,"ARG_OF_PERICENTER":259.0462,"MEAN_ANOMALY":101.0233,"EPHEMERIS_TYPE":0,"CLASSIFICATION_TYPE":"U","NORAD_CAT_ID":57829,"ELEMENT_SET_NO":999,"REV_AT_EPOCH":10471,"BSTAR":6.5376e-5,"MEAN_MOTION_DOT":6.79e-6,"MEAN_MOTION_DDOT":0},{"OBJECT_NAME":"STARLINK-30285","OBJECT_ID":"2023-141A","EPOCH":"2025-07-27T12:33:48.503520","MEAN_MOTION":15.30194417,"ECCENTRICITY":0.000116,"INCLINATION":53.159,"RA_OF_ASC_NODE":250.0196,"ARG_OF_PERICENTER":64.4354,"MEAN_ANOMALY":295.6767,"EPHEMERIS_TYPE":0,"CLASSIFICATION_TYPE":"U","NORAD_CAT_ID":57840,"ELEMENT_SET_NO":999,"REV_AT_EPOCH":10586,"BSTAR":1.0684e-5,"MEAN_MOTION_DOT":-4.3e-7,"MEAN_MOTION_DDOT":0},{"OBJECT_NAME":"STARLINK-30410","OBJECT_ID":"2023-141B","EPOCH":"2025-07-28T02:58:28.745184","MEAN_MOTION":15.30193275,"ECCENTRICITY":0.0001069,"INCLINATION":53.1586,"RA_OF_ASC_NODE":247.1827,"ARG_OF_PERICENTER":76.4958,"MEAN_ANOMALY":283.6161,"EPHEMERIS_TYPE":0,"CLASSIFICATION_TYPE":"U","NORAD_CAT_ID":57841,"ELEMENT_SET_NO":999,"REV_AT_EPOCH":10594,"BSTAR":3.8713e-5,"MEAN_MOTION_DOT":7.87e-6,"MEAN_MOTION_DDOT":0},{"OBJECT_NAME":"STARLINK-30435","OBJECT_ID":"2023-141C","EPOCH":"2025-07-28T09:19:15.522240","MEAN_MOTION":15.30196027,"ECCENTRICITY":0.0001115,"INCLINATION":53.1589,"RA_OF_ASC_NODE":246.0171,"ARG_OF_PERICENTER":78.9427,"MEAN_ANOMALY":281.1699,"EPHEMERIS_TYPE":0,"CLASSIFICATION_TYPE":"U","NORAD_CAT_ID":57842,"ELEMENT_SET_NO":999,"REV_AT_EPOCH":10598,"BSTAR":1.8856e-5,"MEAN_MOTION_DOT":1.99e-6,"MEAN_MOTION_DDOT":0},{"OBJECT_NAME":"STARLINK-30423","OBJECT_ID":"2023-141D","EPOCH":"2025-07-27T19:18:50.900256","MEAN_MOTION":15.30195442,"ECCENTRICITY":0.0001127,"INCLINATION":53.159,"RA_OF_ASC_NODE":248.7307,"ARG_OF_PERICENTER":84.8087,"MEAN_ANOMALY":275.3042,"EPHEMERIS_TYPE":0,"CLASSIFICATION_TYPE":"U","NORAD_CAT_ID":57843,"ELEMENT_SET_NO":999,"REV_AT_EPOCH":10589,"BSTAR":1.6314e-5,"MEAN_MOTION_DOT":1.24e-6,"MEAN_MOTION_DDOT":0}]
