STARLINK-30386          
1 57816U 23138J   25209.18503240  .00000659  00000+0  63847-4 0  9996
2 57816  43.0048  16.0615 0001351 266.3139  93.7549 15.02538915104660
STARLINK-30391          
1 57817U 23138K   25209.18170829 -.00000353  00000+0 -11080-4 0  9995
2 57817  43.0032  16.0366 0001142 264.0631  96.0081 15.02533836104931
STARLINK-30401          
1 57818U 23138L   25208.77950662  .00000773  00000+0  72245-4 0  9995
2 57818  43.0045  18.1787 0001210 267.3061  92.7643 15.02540421104783
STARLINK-30390          
1 57819U 23138M   25209.17504846 -.00000019  00000+0  13707-4 0  9992
2 57819  43.0051  15.9864 0001395 270.0240  90.0442 15.02532855104876
STARLINK-30409          
1 57820U 23138N   25208.76285692  .00000431  00000+0  46974-4 0  9992
2 57820  43.0048  18.0352 0001238 262.3480  97.7222 15.02537015104824
STARLINK-30415          
1 57821U 23138P   25209.16617116  .00000907  00000+0  82205-4 0  9993
2 57821  43.0044  15.9205 0001172 256.2833 103.7879 15.02530267104935
STARLINK-30407          
1 57823U 23138R   25209.32955633 -.00001555  00000+0 -47000-4 0  9998
2 57823  43.0025 315.8465 0001004 273.7541  86.3196 15.27573219105659
STARLINK-30408          
1 57824U 23138S   25208.76618933  .00000083  00000+0  21206-4 0  9998
2 57824  43.0046  18.0776 0001274 263.3837  96.6860 15.02535533104877
STARLINK-30377          
1 57825U 23138T   25208.88249697 -.00000154  00000+0  36897-5 0  9992
2 57825  43.0060  17.2341 0001356 262.9200  97.1488 15.02536803104797
STARLINK-30422          
1 57826U 23138U   25208.88582352  .00001199  00000+0  10382-3 0  9999
2 57826  43.0042  17.2553 0001454 256.0038 104.0643 15.02534068104898
STARLINK-30402          
1 57827U 23138V   25209.48856678  .00001724  00000+0  14264-3 0  9999
2 57827  43.0036  14.0378 0000966 242.4952 117.5792 15.02549328104982
STARLINK-30411          
1 57828U 23138W   25208.82600810 -.00000261  00000+0 -42456-5 0  9995
2 57828  43.0042  17.6437 0001380 267.8342  92.2343 15.02539054104829
STARLINK-30418          
1 57829U 23138X   25208.74621340  .00000679  00000+0  65376-4 0  9994
2 57829  43.0058  17.9282 0001310 259.0462 101.0233 15.02533249104712
STARLINK-30285          
1 57840U 23141A   25208.52347805 -.00000043  00000+0  10684-4 0  9996
2 57840  53.1590 250.0196 0001160  64.4354 295.6767 15.30194417105863
STARLINK-30410          
1 57841U 23141B   25209.12394381  .00000787  00000+0  38713-4 0  9992
2 57841  53.1586 247.1827 0001069  76.4958 283.6161 15.30193275105943
STARLINK-30435          
1 57842U 23141C   25209.38837410  .00000199  00000+0  18856-4 0  9999
2 57842  53.1589 246.0171 0001115  78.9427 281.1699 15.30196027105988
STARLINK-30423          
1 57843U 23141D   25208.80475579  .00000124  00000+0  16314-4 0  9995
2 57843  53.1590 248.7307 0001127  84.8087 275.3042 15.30195442105899
